KUIPER-00157            
1 65970U 25228Z   25355.37558431  .00043788  00000+0  12197-2 0  9993
2 65970  51.8801 338.9405 0007661  59.0664 301.1075 15.36335312 11746
